GALAXY 11 (G-11)        
1 26038U 99071A   24359.88865645 -.00000076  00000+0  00000+0 0  9990
2 26038   5.3689  77.0541 0003662 258.4309  92.1707  0.99037615 91662
INTELSAT 9 (IS-9)       
1 26451U 00043A   24359.75614758  .00000004  00000+0  00000+0 0  9993
2 26451   9.2019  54.0424 0003104 217.8651 160.3047  1.00273623 38734
INTELSAT 1R (IS-1R)     
1 26608U 00072A   24359.67152573 -.00000181  00000+0  00000+0 0  9999
2 26608   6.7285  70.6615 0008784 223.0529 215.4593  0.98975774 35897
INTELSAT 10 (IS-10)     
1 26766U 01019A   24359.75614758  .00000011  00000+0  00000+0 0  9994
2 26766   7.7818  64.7601 0004261 214.8093 152.4949  1.00272785 40217
INTELSAT 901 (IS-901)   
1 26824U 01024A   24359.66607875 -.00000177  00000+0  00000+0 0  9991
2 26824   0.0263  78.5780 0001546 240.7267 346.6636  1.00270880 17574
INTELSAT 902 (IS-902)   
1 26900U 01039A   24360.09034390 -.00000260  00000+0  00000+0 0  9990
2 26900   4.7492  78.3593 0005113 198.9428 159.2319  1.00271137 85365
INTELSAT 904 (IS-904)   
1 27380U 02007A   24359.45139685 -.00000194  00000+0  00000+0 0  9996
2 27380   5.5626  75.6299 0002936 202.2817 308.5541  1.00272678 46353
DIRECTV 5 (TEMPO 1)     
1 27426U 02023A   24360.07844128 -.00000033  00000+0  00000+0 0  9992
2 27426   3.4943  82.0693 0003313 189.9001 100.2302  1.00272755 82896
INTELSAT 905 (IS-905)   
1 27438U 02027A   24359.45235255 -.00000164  00000+0  00000+0 0  9999
2 27438   5.3893  76.2690 0002640 203.0147 312.5431  1.00272324 82553
GALAXY 3C (G-3C)        
1 27445U 02030A   24359.86711008 -.00000128  00000+0  00000+0 0  9991
2 27445   2.3504  84.9027 0002685  65.3197 160.9490  1.00271674 41080
INTELSAT 906 (IS-906)   
1 27513U 02041A   24359.89864772  .00000036  00000+0  00000+0 0  9996
2 27513   4.4264  79.5761 0006594 186.2350 215.7223  1.00271690 81629
GALAXY 23 (G-23)        
1 27854U 03034A   24359.71904959  .00000036  00000+0  00000+0 0  9990
2 27854   1.8002  86.5287 0002722 190.2279 314.9480  1.00272509 78334
GALAXY 13 (HORIZONS-1)  
1 27954U 03044A   24359.64175219  .00000157  00000+0  00000+0 0  9997
2 27954   0.0321  92.1129 0000565  93.1404 349.4383  1.00295592 77748
INTELSAT 10-02          
1 28358U 04022A   24360.07132757  .00000015  00000+0  00000+0 0  9995
2 28358   0.0200  16.2647 0001266 317.5926 144.9346  1.00270603 75220
XM-3 (RHYTHM)           
1 28626U 05008A   24358.14146661 -.00000185  00000+0  00000+0 0  9991
2 28626   0.0100 349.3445 0004652 230.4559 198.1369  1.00267203 37192
DIRECTV 8               
1 28659U 05019A   24359.71939712  .00000026  00000+0  00000+0 0  9993
2 28659   0.0177  24.7550 0002940 256.7825 312.1315  1.00272692 71665
GALAXY 28 (G-28)        
1 28702U 05022A   24359.86823953 -.00000161  00000+0  00000+0 0  9992
2 28702   1.9054  85.6712 0006923 189.5659  42.1864  1.00271951 46575
GALAXY 14 (G-14)        
1 28790U 05030A   24359.88900397 -.00000073  00000+0  00000+0 0  9990
2 28790   3.6296  81.4917 0001029 185.8320 162.2648  0.98945408 70882
SPACEWAY 2              
1 28903U 05046B   24359.84815985  .00000028  00000+0  00000+0 0  9996
2 28903   4.0860  77.9474 0002114  77.3989 330.1107  0.99059942 45934
GALAXY 16 (G-16)        
1 29236U 06023A   24360.08070016 -.00000101  00000+0  00000+0 0  9991
2 29236   0.0116 313.0782 0002570 330.1156 100.9337  1.00271832 67863
DIRECTV 9S              
1 29494U 06043A   24359.62295034 -.00000089  00000+0  00000+0 0  9991
2 29494   1.0242  87.5077 0002990 191.5874 297.5935  1.00271760 45977
GALAXY 17 (G-17)        
1 31307U 07016B   24360.08348035 -.00000181  00000+0  00000+0 0  9993
2 31307   1.6020  86.8485 0007310 207.1545 105.1411  1.00272961 64673
DIRECTV 10              
1 31862U 07032A   24360.07991824 -.00000077  00000+0  00000+0 0  9990
2 31862   0.0079 122.3505 0000387 242.5665  15.1484  1.00273001 64001
INTELSAT 11 (IS-11)     
1 32253U 07044B   24360.13867171 -.00000244  00000+0  00000+0 0  9998
2 32253   2.1595  85.3842 0004279 204.5377 171.1250  1.00270537 63123
HORIZONS-2              
1 32388U 07063B   24359.87128035 -.00000228  00000+0  00000+0 0  9998
2 32388   1.2066  87.3785 0001878 190.2397  56.1372  1.00271523 62401
DIRECTV 11              
1 32729U 08013A   24360.08061330 -.00000099  00000+0  00000+0 0  9998
2 32729   0.0108 180.2418 0000157  90.9671 112.7145  1.00269475 61533
GALAXY 18 (G-18)        
1 32951U 08024A   24359.71861519  .00000050  00000+0  00000+0 0  9998
2 32951   0.0121 302.7624 0002915 331.5001 315.1624  1.00273417 40449
INTELSAT 25 (IS-25)     
1 33153U 08034A   24359.73677323 -.00000199  00000+0  00000+0 0  9999
2 33153   1.3132  87.0536 0002978 194.4253  46.0026  1.00274254 60223
GALAXY 19 (G-19)        
1 33376U 08045A   24359.62132793 -.00000114  00000+0  00000+0 0  9990
2 33376   0.0260 285.8646 0002854 359.3283 295.1203  1.00272035 59492
FM-5                    
1 35493U 09034A   24359.79725810 -.00000175  00000+0  00000+0 0  9994
2 35493   0.0137 307.7813 0001434 214.1953 132.7048  1.00271262 41239
INTELSAT 14 (IS-14)     
1 36097U 09064A   24360.09138647 -.00000247  00000+0  00000+0 0  9999
2 36097   0.0095   3.6671 0002344 273.5980 164.7297  1.00270436 55291
INTELSAT 15 (IS-15)     
1 36106U 09067A   24359.90281799 -.00000159  00000+0  00000+0 0  9990
2 36106   0.0146 302.8438 0002244 344.1488 217.0620  1.00269529 35821
DIRECTV 12              
1 36131U 09075A   24360.07991824 -.00000077  00000+0  00000+0 0  9993
2 36131   0.0417 177.9656 0000575 160.2486  41.9149  1.00271865 54987
INTELSAT 16 (IS-16)     
1 36397U 10006A   24359.87084594 -.00000219  00000+0  00000+0 0  9994
2 36397   0.0093   8.7829 0002085 264.1545  58.2416  1.00272883 54240
XM-5                    
1 37185U 10053A   24359.20605076  .00000001  00000+0  00000+0 0  9991
2 37185   0.0189   8.2579 0000679 147.0268 256.9241  1.00270179 52064
INTELSAT 17 (IS-17)     
1 37238U 10065B   24359.89899524  .00000023  00000+0  00000+0 0  9995
2 37238   0.0262  58.2346 0002509 230.9035 194.3994  1.00273279 47833
INTELSAT 28 (IS-28)     
1 37392U 11016A   24359.81993392  .00000140  00000+0  00000+0 0  9993
2 37392   0.4081  90.0731 0004241 180.5468 140.2800  1.00130431 47876
INTELSAT 18 (IS-18)     
1 37834U 11056A   24360.06445351  .00000079  00000+0  00000+0 0  9995
2 37834   0.0160 324.6796 0001285 293.6867  38.9023  1.00272225 48433
INTELSAT 22 (IS-22)     
1 38098U 12011A   24359.90021156 -.00000034  00000+0  00000+0 0  9996
2 38098   0.0351  53.5773 0001987 244.2770 192.2295  1.00271834  1782
INTELSAT 19 (IS-19)     
1 38356U 12030A   24359.84738819 -.00000031  00000+0  00000+0 0  9995
2 38356   0.0087 353.1790 0002926 283.8787 287.8594  1.00272069 45034
INTELSAT 20 (IS-20)     
1 38740U 12043A   24359.88035562  .00000001  00000+0  00000+0 0  9991
2 38740   0.0124  65.0316 0002902 116.8810 297.4025  1.00271538 45342
INTELSAT 21 (IS-21)     
1 38749U 12045A   24359.08104948 -.00000262  00000+0  00000+0 0  9999
2 38749   0.0217  67.3678 0002108 205.5855 151.2951  1.00268975 45103
INTELSAT 23 (IS-23)     
1 38867U 12057A   24359.07549234 -.00000261  00000+0  00000+0 0  9992
2 38867   0.0400 207.1080 0001271 210.4417   9.6984  1.00264905 44524
FM-6                    
1 39360U 13058A   24359.86276605  .00000009  00000+0  00000+0 0  9998
2 39360   0.0027   1.1553 0000390 187.0919 100.0508  1.00268937 40659
INTELSAT 30 (IS-30)     
1 40271U 14062A   24359.33938095 -.00000127  00000+0  00000+0 0  9999
2 40271   0.0117  20.7357 0001152 358.4892 101.2652  1.00271866  1376
DIRECTV 14              
1 40333U 14078B   24359.90968462 -.00000100  00000+0  00000+0 0  9990
2 40333   0.0152 329.4350 0000330 190.1606 162.5827  1.00272966 36652
DIRECTV 15              
1 40663U 15026A   24360.00829101 -.00000077  00000+0  00000+0 0  9992
2 40663   0.0169  29.5185 0000770 132.9300 191.6903  1.00271697 35133
SKY MEXICO-1            
1 40664U 15026B   24359.79882194 -.00000209  00000+0  00000+0 0  9995
2 40664   0.0266 335.7534 0002478 314.1883  12.6772  1.00271303 35049
INTELSAT 34 (IS-34)     
1 40874U 15039A   24360.08930135 -.00000259  00000+0  00000+0 0  9990
2 40874   0.0184 357.3778 0000447 174.4087 258.9653  1.00271316 34213
INTELSAT 31 (IS-31)     
1 41581U 16035A   24359.26646644 -.00000127  00000+0  00000+0 0  9994
2 41581   0.0188  88.8092 0001765  86.2312 279.1014  1.00272312 31279
INTELSAT 36 (IS-36)     
1 41747U 16053A   24359.89934275  .00000001  00000+0  00000+0 0  9997
2 41747   0.0110   9.3197 0001159 343.7282 133.1377  1.00272061 30547
INTELSAT 32E (IS-32E)   
1 41945U 17007B   24360.13874409 -.00000243  00000+0  00000+0 0  9997
2 41945   0.0140  41.9213 0000491  80.6540 338.3315  1.00269921 28845
INTELSAT 35E (IS-35E)   
1 42818U 17041A   24359.73616507 -.00000213  00000+0  00000+0 0  9999
2 42818   0.0032  95.8557 0002239 190.3386  38.0832  1.00272235 27404
INTELSAT 37E (IS-37E)   
1 42950U 17059A   24359.93784458 -.00000115  00000+0  00000+0 0  9999
2 42950   0.0237  18.4815 0002724 248.8536 146.2286  1.00269806 26652
AZERSPACE 2 (IS-38)     
1 43632U 18074A   24359.89702171  .00000162  00000+0  00000+0 0  9993
2 43632   0.0181   5.8327 0001802 300.6760 155.4304  1.00271707 23044
HORIZONS-3E             
1 43633U 18074B   24358.91907453 -.00000008  00000+0  00000+0 0  9996
2 43633   0.0427 186.4236 0001307  72.6155 333.7597  1.00269970 22927
AT&T T-16               
1 44333U 19034A   24359.86589375 -.00000089  00000+0  00000+0 0  9994
2 44333   0.0193  16.3156 0001139 111.2970 177.1104  1.00269226 20224
INTELSAT 39 (IS-39)     
1 44476U 19049B   24359.89821331  .00000059  00000+0  00000+0 0  9998
2 44476   0.0018  27.6131 0000819 110.5292 341.0700  1.00271165 19721
GALAXY 30 (G-30)        
1 46114U 20056C   24359.73338288  .00000062  00000+0  00000+0 0  9990
2 46114   0.0167  25.0248 0002057 248.6311 319.0869  1.00272399 15883
GALAXY 33 (G-33)        
1 54026U 22128A   24359.95429105  .00000105  00000+0  00000+0 0  9994
2 54026   0.0110 314.1947 0001765 310.8347  39.4808  1.00273048  8336
GALAXY 34 (G-34)        
1 54027U 22128B   24359.64757167  .00000083  00000+0  00000+0 0  9998
2 54027   0.0235 353.4421 0001604 277.1164 287.2995  1.00272025  8505
GALAXY 31 (G-31)        
1 54243U 22153A   24359.71896271  .00000038  00000+0  00000+0 0  9994
2 54243   0.0142 284.5651 0001380   0.2392 306.7510  1.00272716  1724
GALAXY 32 (G-32)        
1 54244U 22153B   24357.42549437 -.00000157  00000+0  00000+0 0  9993
2 54244   0.0092 341.6053 0002017 335.7857 196.2495  1.00271421  7711
GALAXY 35 (G-35)        
1 54741U 22170A   24359.79586802 -.00000137  00000+0  00000+0 0  9991
2 54741   0.0156 310.9614 0002055 324.1613  12.0927  1.00271702  7481
GALAXY 36 (G-36)        
1 54742U 22170B   24359.90496090 -.00000159  00000+0  00000+0 0  9998
2 54742   0.0192  42.5750 0000777  14.1532 273.9679  1.00271574  7362
GALAXY 37 (G-37)        
1 57493U 23112A   24359.60466118  .00000073  00000+0  00000+0 0  9990
2 57493   0.0102 350.3191 0002073 288.9534 265.0255  1.00273136  5133
